[{"OBJECT_NAME":"STARLINK-11619 [DTC]","OBJECT_ID":"2025-053H","EPOCH":"2026-03-09T12:40:30.433728","MEAN_MOTION":15.70868644,"ECCENTRICITY":0.00017331,"INCLINATION":42.9999,"RA_OF_ASC_NODE":113.2472,"ARG_OF_PERICENTER":323.8604,"MEAN_ANOMALY":36.2147,"EPHEMERIS_TYPE":0,"CLASSIFICATION_TYPE":"U","NORAD_CAT_ID":63272,"ELEMENT_SET_NO":999,"REV_AT_EPOCH":5764,"BSTAR":0.0011285227,"MEAN_MOTION_DOT":0.00147125,"MEAN_MOTION_DDOT":0},{"OBJECT_NAME":"DELTA 2 R\/B(1)","OBJECT_ID":"1990-008B","EPOCH":"2026-03-09T08:59:25.462464","MEAN_MOTION":15.55957726,"ECCENTRICITY":0.00854397,"INCLINATION":35.6039,"RA_OF_ASC_NODE":176.922,"ARG_OF_PERICENTER":255.8292,"MEAN_ANOMALY":103.2939,"EPHEMERIS_TYPE":0,"CLASSIFICATION_TYPE":"U","NORAD_CAT_ID":20453,"ELEMENT_SET_NO":999,"REV_AT_EPOCH":92608,"BSTAR":0.00075711194,"MEAN_MOTION_DOT":0.00064698,"MEAN_MOTION_DDOT":0}]
